STARLINK-1236           
1 45191U 20012P   24358.58334491  .01165283  00000+0  15274-1 0  9999
2 45191  53.0549 219.3569 0000931 111.0038  70.9244 15.55564298  5876
STARLINK-1237           
1 45192U 20012Q   24358.62888261 -.00001183  00000+0 -60583-4 0  9999
2 45192  53.0531 226.6164 0001268  94.5984 265.5150 15.06392072268367
STARLINK-1240           
1 45194U 20012S   24357.95803638  .00002171  00000+0  16455-3 0  9995
2 45194  53.0533 229.6272 0001384  87.7183 272.3965 15.06406002268154
STARLINK-1244           
1 45196U 20012U   24358.07229853  .00000579  00000+0  57785-4 0  9994
2 45196  53.0527 229.1154 0001346  83.4002 276.7140 15.06402949268322
STARLINK-1269           
1 45197U 20012V   24358.79105504  .00006012  00000+0  42212-3 0  9996
2 45197  53.0545 225.8921 0001525 100.6974 259.4187 15.06405505267472
STARLINK-1154           
1 45198U 20012W   24358.78183102  .00002132  00000+0  16195-3 0  9996
2 45198  53.0530 205.9329 0001410  78.4336 281.6811 15.06414442267724
STARLINK-1199           
1 45201U 20012Z   24357.99673234 -.00000844  00000+0 -37770-4 0  9996
2 45201  53.0524 209.4507 0001438 110.5596 249.5547 15.06400592268546
STARLINK-1206           
1 45204U 20012AC  24358.02252230 -.00001627  00000+0 -90367-4 0  9994
2 45204  53.0536 209.3378 0001493  98.7896 261.3262 15.06397720268564
STARLINK-1208           
1 45205U 20012AD  24358.77448478 -.00001777  00000+0 -10046-3 0  9999
2 45205  53.0539 205.9678 0001847  32.8319 327.2785 15.06389868267739
STARLINK-1209           
1 45206U 20012AE  24358.80210387  .00000859  00000+0  76564-4 0  9996
2 45206  53.0548 185.8353 0001670  96.6448 263.4731 15.06406155267990
STARLINK-1210           
1 45207U 20012AF  24357.87546192  .00011738  00000+0  61543-3 0  9997
2 45207  53.0542 205.9099 0004541 125.4345 234.7073 15.16189297267641
STARLINK-1219           
1 45210U 20012AJ  24358.00411151  .00001530  00000+0  12156-3 0  9998
2 45210  53.0529 209.4226 0001447  83.1845 276.9309 15.06404224268435
STARLINK-1231           
1 45212U 20012AL  24358.83342935 -.00005788  00000+0 -36993-3 0  9990
2 45212  53.0528 205.6956 0001616  81.8958 278.2214 15.06406065267739
STARLINK-1271           
1 45217U 20012AR  24358.57910500 -.00000554  00000+0 -18315-4 0  9990
2 45217  53.0535 206.8430 0001466  80.2070 279.9084 15.06402477268639
STARLINK-1187           
1 45219U 20012AT  24358.80759705  .00043492  00000+0  76557-3 0  9993
2 45219  53.0525 174.8599 0000695 117.8377 242.2702 15.50044580268142
STARLINK-1189           
1 45221U 20012AV  24358.58334491  .01201984  00000+0  28154-1 0  9993
2 45221  53.0526 185.1840 0001113  82.1285  53.2835 15.38621329  5580
STARLINK-1191           
1 45222U 20012AW  24358.78735905  .00000743  00000+0  68745-4 0  9993
2 45222  53.0541 185.9082 0001352  97.7787 262.3355 15.06406937268007
STARLINK-1212           
1 45223U 20012AX  24357.94336734  .00001679  00000+0  13155-3 0  9991
2 45223  53.0536 190.3505 0001395  84.8481 275.2667 15.06402367268818
STARLINK-1215           
1 45225U 20012AZ  24358.82790403  .00000848  00000+0  75829-4 0  9992
2 45225  53.0552 185.7180 0001701  97.8645 262.2537 15.06403064268011
STARLINK-1217           
1 45226U 20012BA  24357.97277599 -.00001481  00000+0 -80569-4 0  9997
2 45226  53.0530 189.5606 0001642  97.6156 262.5020 15.06395569268731
STARLINK-1221           
1 45227U 20012BB  24357.91154029  .00015634  00000+0  66616-3 0  9993
2 45227  53.0689 177.1224 0004610  85.0271 275.1252 15.23136938268912
STARLINK-1222           
1 45228U 20012BC  24358.79472897  .00001213  00000+0  10031-3 0  9995
2 45228  53.0537 185.8737 0001500  90.9224 269.1937 15.06408454268007
STARLINK-1226           
1 45229U 20012BD  24358.75784269  .00014086  00000+0  96086-3 0  9997
2 45229  53.0538 186.0322 0002070 113.5465 246.5742 15.06469974268001
STARLINK-1227           
1 45230U 20012BE  24358.82053128  .00000548  00000+0  55664-4 0  9996
2 45230  53.0544 185.7540 0001771 108.2734 251.8448 15.06409186268017
STARLINK-1235           
1 45232U 20012BG  24358.91667824  .00067016  00000+0  95272-3 0  9993
2 45232  53.0586 130.8748 0001297  22.5384 109.1752 15.55786113268787
STARLINK-1238           
1 45233U 20012BH  24358.81039466  .00000790  00000+0  71954-4 0  9996
2 45233  53.0531 205.7918 0001401 101.8713 258.2433 15.06401785267723
STARLINK-1246           
1 45235U 20012BK  24358.83526796 -.00002680  00000+0 -16113-3 0  9994
2 45235  53.0537 225.6903 0001084  56.5988 303.5105 15.06398871267487
STARLINK-1247           
1 45236U 20012BL  24358.81683738  .00005117  00000+0  36185-3 0  9990
2 45236  53.0536 185.7706 0001746 118.2352 241.8814 15.06429752268014
STARLINK-1270           
1 45237U 20012BM  24358.77261731  .00000672  00000+0  64023-4 0  9995
2 45237  53.0547 185.9676 0001455  93.9296 266.1859 15.06400483268006
STARLINK-1279           
1 45360U 20019A   24358.26673184  .00000069  00000+0  23506-4 0  9993
2 45360  53.0565 318.2440 0001669  99.8247 260.2931 15.06396333263606
STARLINK-1301           
1 45361U 20019B   24358.32111327  .00004813  00000+0  34181-3 0  9998
2 45361  53.0569 328.0000 0002066 122.9063 237.2125 15.06399293263481
STARLINK-1306           
1 45362U 20019C   24358.30082500  .00000589  00000+0  58426-4 0  9992
2 45362  53.0566 348.0914 0001565  85.1364 274.9804 15.06397940263199
STARLINK-1262           
1 45366U 20019G   24358.28607693 -.00000507  00000+0 -15112-4 0  9996
2 45366  53.0557 348.1568 0001462 112.7253 247.3891 15.06398846263207
STARLINK-1273           
1 45367U 20019H   24358.37454948  .00001881  00000+0  14518-3 0  9992
2 45367  53.0557 347.7608 0001679 103.5429 256.5747 15.06398414263215
STARLINK-1276           
1 45368U 20019J   24358.21235510 -.00001162  00000+0 -59105-4 0  9994
2 45368  53.0569 348.4854 0001501 102.0301 258.0856 15.06394091263199
STARLINK-1277           
1 45369U 20019K   24358.20506437 -.00000789  00000+0 -34049-4 0  9997
2 45369  53.0569 349.1451 0001758 106.8447 253.2735 15.06399978263189
STARLINK-1281           
1 45370U 20019L   24358.40034221  .00005954  00000+0  41831-3 0  9991
2 45370  53.0568 347.6433 0001508 104.9189 255.1967 15.06398802263226
STARLINK-1295           
1 45373U 20019P   24358.24486576  .00011070  00000+0  70293-3 0  9990
2 45373  53.0545 347.1346 0001153  11.5201 348.5815 15.09335087263213
STARLINK-1300           
1 45374U 20019Q   24358.22340635 -.00002681  00000+0 -16119-3 0  9991
2 45374  53.0561 348.4379 0001546 102.8750 257.2412 15.06396000263196
STARLINK-1302           
1 45375U 20019R   24358.30450551  .00001217  00000+0  10058-3 0  9998
2 45375  53.0560 348.0755 0001741  94.6986 265.4202 15.06398824263202
STARLINK-1304           
1 45376U 20019S   24358.38928600 -.00000760  00000+0 -32092-4 0  9999
2 45376  53.0557 347.6892 0001823  95.1741 264.9456 15.06396854263219
STARLINK-1305           
1 45377U 20019T   24358.34873779  .00000368  00000+0  43612-4 0  9994
2 45377  53.0558 347.8746 0001614 110.9366 249.1795 15.06389471263216
STARLINK-1319           
1 45379U 20019V   24358.40770960 -.00002366  00000+0 -13999-3 0  9997
2 45379  53.0553 347.6090 0001649 121.6013 238.5137 15.06395939263228
STARLINK-1207           
1 45380U 20019W   24358.58334491  .00178780  00000+0  97950-3 0  9994
2 45380  53.0483 312.0065 0004024 111.1960  53.2553 15.78774556  5891
STARLINK-1258           
1 45381U 20019X   24358.21788281 -.00005667  00000+0 -36193-3 0  9992
2 45381  53.0567 328.4684 0001748  83.6364 276.4824 15.06392286263460
STARLINK-1266           
1 45383U 20019Z   24358.21051260  .00004279  00000+0  30599-3 0  9994
2 45383  53.0566 328.4929 0001958 132.5463 227.5691 15.06402956263465
STARLINK-1267           
1 45384U 20019AA  24358.12951317  .00001613  00000+0  12719-3 0  9990
2 45384  53.0574 329.5079 0002691 118.0705 242.0556 15.06408237263444
STARLINK-1272           
1 45386U 20019AC  24358.33583601  .00006508  00000+0  45543-3 0  9991
2 45386  53.0556 327.9338 0001879  82.4785 277.6418 15.06397046263485
STARLINK-1274           
1 45387U 20019AD  24358.15891317  .00000244  00000+0  35298-4 0  9996
2 45387  53.0562 328.7260 0002148 137.2303 222.8853 15.06406135263453
STARLINK-1280           
1 45388U 20019AE  24358.26029747  .00006558  00000+0  45869-3 0  9997
2 45388  53.0556 348.2699 0001501  77.8109 282.3048 15.06406699263187
STARLINK-1283           
1 45389U 20019AF  24358.30635435  .00009603  00000+0  66263-3 0  9995
2 45389  53.0554 328.0655 0001793  84.1938 275.9255 15.06404802263483
STARLINK-1284           
1 45390U 20019AG  24358.21419737 -.00003725  00000+0 -23129-3 0  9997
2 45390  53.0559 328.4786 0001433 102.0481 258.0668 15.06401412263465
STARLINK-1291           
1 45393U 20019AK  24358.58334491  .00143247  00000+0  94876-3 0  9992
2 45393  53.0528 311.8571 0004375 102.1460 236.0099 15.74590585  5955
STARLINK-1292           
1 45394U 20019AL  24358.22157782 -.00002009  00000+0 -11604-3 0  9990
2 45394  53.0552 328.4422 0001299  89.9962 270.1176 15.06398348263200
STARLINK-1297           
1 45395U 20019AM  24358.25106284  .00003293  00000+0  23984-3 0  9993
2 45395  53.0558 328.3118 0001612  93.3785 266.7388 15.06405511262654
STARLINK-1303           
1 45396U 20019AN  24358.28583192  .00000536  00000+0  19671-4 0  9990
2 45396  53.0551 318.8452 0001558  70.0662 290.0512 15.45724280263322
STARLINK-1307           
1 45397U 20019AP  24358.31005330  .00004977  00000+0  35292-3 0  9997
2 45397  53.0559 328.0488 0001464 107.6752 252.4397 15.06382719263301
STARLINK-1312           
1 45398U 20019AQ  24358.23631138  .00004211  00000+0  30142-3 0  9990
2 45398  53.0558 328.3792 0001572 143.4722 216.6374 15.06403289263221
STARLINK-1255           
1 45399U 20019AR  24358.27778239 -.00002888  00000+0 -17517-3 0  9990
2 45399  53.0549 318.1899 0001451 103.2747 256.8404 15.06378659263428
